MEAN_MOTION;ECCENTRICITY;INCLINATION;RA_OF_ASC_NODE;ARG_OF_PERICENTER;MEAN_ANOMALY;BSTAR;MEAN_MOTION_DOT;MEAN_MOTION_DDOT;TYPE
14.34217312;0.0002337;86.4005;349.5619;83.955;276.1912;1.6413E-5;6.6E-7;0;Iridium
14.34217385;0.000233;86.4005;349.3288;83.8114;276.3347;1.7027E-5;6.7E-7;0;Iridium
14.34217385;0.000233;86.4005;349.3288;83.8114;276.3347;1.7027E-5;6.7E-7;0;Iridium
14.34217387;0.0002331;86.4005;349.1249;83.9128;276.2333;1.4647E-5;6.1E-7;0;Iridium
14.3421746;0.0002327;86.4004;348.9501;83.7411;276.4049;1.635E-5;6.6E-7;0;Iridium
14.3421752;0.0002332;86.4003;348.717;83.6666;276.4795;1.6308E-5;6.5E-7;0;Iridium
14.3421756;0.0002332;86.4003;348.5422;83.1583;276.9878;1.6656E-5;6.6E-7;0;Iridium
14.34217621;0.0002332;86.4003;348.3382;83.035;277.1111;1.7323E-5;6.8E-7;0;Iridium
14.34217714;0.0002323;86.4003;348.1343;83.0195;277.1265;2.0276E-5;7.7E-7;0;Iridium
14.34217754;0.0002319;86.4002;347.9303;82.8981;277.2478;2.0299E-5;7.7E-7;0;Iridium
14.34217754;0.0002319;86.4002;347.9303;82.8981;277.2478;2.0299E-5;7.7E-7;0;Iridium
14.34217916;0.0002306;86.4002;347.5224;82.7501;277.3957;2.4097E-5;8.7E-7;0;Iridium
14.34218057;0.0002291;86.4001;347.3183;82.2413;277.9043;2.8268E-5;9.9E-7;0;Iridium
14.34218;0.0002295;86.4001;347.2892;82.5889;277.5567;2.5854E-5;9.2E-7;0;Iridium
14.34218044;0.0002301;86.4001;347.0561;82.7353;277.4104;2.5424E-5;9.1E-7;0;Iridium
14.34218103;0.0002301;86.4001;346.8229;82.4166;277.7291;2.63E-5;9.3E-7;0;Iridium
14.34218103;0.0002301;86.4001;346.8229;82.4166;277.7291;2.63E-5;9.3E-7;0;Iridium
14.34218145;0.0002301;86.4;346.6188;82.5099;277.6358;2.5374E-5;9.1E-7;0;Iridium
14.34218216;0.0002288;86.3999;346.2108;82.0201;278.1255;2.2261E-5;8.2E-7;0;Iridium
14.34218306;0.0002304;86.3997;345.9194;81.9677;278.178;2.2289E-5;8.2E-7;0;Iridium
14.34218321;0.0002301;86.3997;345.8903;81.9176;278.2281;2.2355E-5;8.2E-7;0;Iridium
14.3421837;0.0002301;86.3997;345.8028;81.8412;278.3045;2.3052E-5;8.4E-7;0;Iridium
14.34218476;0.0002302;86.3996;345.5114;81.347;278.7986;2.3404E-5;8.5E-7;0;Iridium
14.34218535;0.0002297;86.3996;345.3366;81.2459;278.8997;2.3035E-5;8.4E-7;0;Iridium
14.34218632;0.0002289;86.3995;345.0743;81.0786;279.0669;2.3299E-5;8.5E-7;0;Iridium
14.34218632;0.0002289;86.3995;345.0743;81.0786;279.0669;2.3299E-5;8.5E-7;0;Iridium
14.34218678;0.0002281;86.3994;344.9285;81.1241;279.0213;2.2861E-5;8.4E-7;0;Iridium
14.34218707;0.0002274;86.3993;344.6662;81.0143;279.131;1.9067E-5;7.3E-7;0;Iridium
14.34218711;0.0002267;86.3993;344.5205;81.0108;279.1345;1.5522E-5;6.3E-7;0;Iridium
14.34218726;0.0002259;86.3993;344.3748;80.8688;279.2763;1.3031E-5;5.6E-7;0;Iridium
14.34218745;0.0002254;86.3992;344.1416;80.7278;279.4173;1.082E-5;5.0E-7;0;Iridium
14.34218795;0.0002245;86.3991;343.821;80.5023;279.6426;1.163E-5;5.2E-7;0;Iridium
14.34218795;0.0002245;86.3991;343.821;80.5023;279.6426;1.163E-5;5.2E-7;0;Iridium
14.34218806;0.0002243;86.3991;343.7918;80.4881;279.6568;1.1494E-5;5.2E-7;0;Iridium
14.34218812;0.0002239;86.3991;343.6752;80.4339;279.711;1.0706E-5;5.0E-7;0;Iridium
14.34218971;0.0002237;86.399;343.4129;80.4996;279.6453;1.7431E-5;6.9E-7;0;Iridium
14.34219031;0.0002233;86.399;343.2672;80.5325;279.6123;1.9083E-5;7.3E-7;0;Iridium
14.34219067;0.0002228;86.399;343.0048;80.3045;279.8402;1.7825E-5;7.0E-7;0;Iridium
14.34219134;0.0002224;86.3989;342.8299;80.5301;279.6146;2.0055E-5;7.6E-7;0;Iridium
14.34215704;0.0002237;86.3987;342.5673;80.0161;280.1287;2.0646E-5;7.8E-7;0;Iridium
14.34215704;0.0002237;86.3987;342.5673;80.0161;280.1287;2.0646E-5;7.8E-7;0;Iridium
14.34216067;0.0002234;86.3988;342.4217;80.4564;279.6884;2.1067E-5;7.9E-7;0;Iridium
14.34216269;0.0002223;86.3987;342.1594;80.2172;279.9274;3.8708E-5;1.28E-6;0;Iridium
14.34216378;0.0002217;86.3987;342.0136;80.297;279.8476;4.6921E-5;1.51E-6;0;Iridium
14.34216409;0.0002205;86.3985;341.7221;80.244;279.9005;2.9919E-5;1.04E-6;0;Iridium
14.34216461;0.0002197;86.3985;341.5764;80.409;279.7354;3.1132E-5;1.07E-6;0;Iridium
14.34216488;0.0002191;86.3984;341.314;80.2301;279.9142;2.5085E-5;9.0E-7;0;Iridium
14.34216543;0.0002185;86.3983;341.1682;80.3565;279.7878;2.6678E-5;9.4E-7;0;Iridium
14.34216642;0.0002178;86.3982;340.9933;80.2161;279.928;2.8958E-5;1.01E-6;0;Iridium
14.34216695;0.0002172;86.3982;340.8767;80.2145;279.9296;2.9664E-5;1.03E-6;0;Iridium
14.34216711;0.0002169;86.3981;340.8184;80.2235;279.9205;2.8737E-5;1.0E-6;0;Iridium
14.34216779;0.0002158;86.3981;340.6434;80.1773;279.9666;2.9342E-5;1.02E-6;0;Iridium
14.34216845;0.0002147;86.3979;340.4102;80.1766;279.9672;2.7708E-5;9.7E-7;0;Iridium
14.34216905;0.0002138;86.3979;340.2644;80.2123;279.9315;2.8651E-5;1.0E-6;0;Iridium
14.34217001;0.0002128;86.3977;339.9728;80.2091;279.9345;2.6397E-5;9.4E-7;0;Iridium
14.34217067;0.0002118;86.3976;339.7978;80.2635;279.88;2.6201E-5;9.3E-7;0;Iridium
14.34217067;0.0002118;86.3976;339.7978;80.2635;279.88;2.6201E-5;9.3E-7;0;Iridium
14.3421713;0.0002114;86.3975;339.5645;80.3553;279.7882;2.4105E-5;8.7E-7;0;Iridium
14.34217181;0.0002105;86.3975;339.3604;80.2758;279.8675;2.2692E-5;8.3E-7;0;Iridium
14.34217181;0.0002105;86.3975;339.3604;80.2758;279.8675;2.2692E-5;8.3E-7;0;Iridium
14.34217289;0.0002089;86.3973;338.9521;80.4571;279.686;2.0323E-5;7.7E-7;0;Iridium
14.34217442;0.0002071;86.3971;338.5438;80.671;279.4719;2.0431E-5;7.7E-7;0;Iridium
14.34217481;0.000207;86.397;338.3105;80.9582;279.1848;1.8772E-5;7.2E-7;0;Iridium
14.34217625;0.0002061;86.3968;337.9314;81.2985;278.8444;2.0079E-5;7.6E-7;0;Iridium
14.34217625;0.0002061;86.3968;337.9022;81.3424;278.8005;1.9663E-5;7.5E-7;0;Iridium
14.34217759;0.0002068;86.3967;337.4938;82.3514;277.7916;2.1045E-5;7.9E-7;0;Iridium
14.34217877;0.0002057;86.3966;337.0854;82.15;277.993;2.2029E-5;8.1E-7;0;Iridium
14.34217861;0.0002058;86.3966;337.0563;82.1885;277.9544;2.1252E-5;7.9E-7;0;Iridium
14.34217916;0.000205;86.3965;336.8813;82.0883;278.0546;2.2369E-5;8.2E-7;0;Iridium
14.34217984;0.0002049;86.3964;336.6479;81.9233;278.2195;2.2594E-5;8.3E-7;0;Iridium
14.3421807;0.0002037;86.3962;336.2978;82.1378;278.0049;2.3666E-5;8.6E-7;0;Iridium
14.3421807;0.0002037;86.3962;336.2978;82.1378;278.0049;2.3666E-5;8.6E-7;0;Iridium
14.34218071;0.0002038;86.3962;336.2394;81.7458;278.3969;2.2295E-5;8.2E-7;0;Iridium
14.34218188;0.0002022;86.396;335.831;82.0553;278.0873;2.315E-5;8.5E-7;0;Iridium
14.34218394;0.0002009;86.3959;335.3933;82.6828;277.4596;2.6867E-5;9.5E-7;0;Iridium
14.34218532;0.0001996;86.3957;335.0432;82.546;277.5963;2.7663E-5;9.7E-7;0;Iridium
14.34218546;0.0001996;86.3957;334.9848;82.6022;277.5401;2.6801E-5;9.5E-7;0;Iridium
14.3421864;0.0001992;86.3956;334.5763;83.0799;277.0623;2.3929E-5;8.7E-7;0;Iridium
14.34218742;0.0001981;86.3954;334.1678;83.4216;276.7205;2.1086E-5;7.9E-7;0;Iridium
14.34218721;0.0001983;86.3954;334.1387;83.7132;276.4289;1.9744E-5;7.5E-7;0;Iridium
14.34218834;0.0001977;86.3952;333.7593;84.041;276.1011;1.7926E-5;7.0E-7;0;Iridium
14.34218967;0.0001967;86.3951;333.3509;83.8788;276.2632;1.7255E-5;6.8E-7;0;Iridium
14.34218967;0.0001967;86.3951;333.3509;83.8788;276.2632;1.7255E-5;6.8E-7;0;Iridium
14.34218972;0.0001967;86.3951;333.3217;83.9099;276.232;1.6915E-5;6.7E-7;0;Iridium
14.34219103;0.0001954;86.3949;332.9715;84.136;276.0059;1.879E-5;7.2E-7;0;Iridium
14.3421917;0.0001943;86.3949;332.7089;84.2766;275.8651;1.8114E-5;7.1E-7;0;Iridium
14.34219213;0.0001942;86.3948;332.5337;84.4039;275.7378;1.8104E-5;7.0E-7;0;Iridium
14.3421921;0.0001941;86.3948;332.4753;84.4118;275.7299;1.733E-5;6.8E-7;0;Iridium
14.3421931;0.0001941;86.3947;332.0667;84.9644;275.1773;1.8013E-5;7.0E-7;0;Iridium
14.34219307;0.000194;86.3947;331.95;85.1015;275.0402;1.8186E-5;7.1E-7;0;Iridium
14.34219363;0.0001938;86.3946;331.6873;85.1078;275.0339;1.7559E-5;6.9E-7;0;Iridium
14.34219336;0.0001938;86.3946;331.6289;85.34;274.8018;1.5898E-5;6.4E-7;0;Iridium
14.34219406;0.0001934;86.3945;331.2495;85.6286;274.5131;1.6282E-5;6.5E-7;0;Iridium
14.34219545;0.0001932;86.3944;330.8116;86.3258;273.8159;1.9477E-5;7.4E-7;0;Iridium
14.34219582;0.000193;86.3944;330.6949;86.452;273.6897;2.148E-5;8.0E-7;0;Iridium
14.34219691;0.0001932;86.3943;330.4614;86.579;273.5626;2.3352E-5;8.5E-7;0;Iridium
14.34219708;0.0001933;86.3943;330.403;86.6929;273.4488;2.3096E-5;8.4E-7;0;Iridium
14.34219701;0.0001922;86.394;330.0234;86.9149;273.2266;2.0003E-5;7.6E-7;0;Iridium
14.34219701;0.0001922;86.394;330.0234;86.9149;273.2266;2.0003E-5;7.6E-7;0;Iridium
14.34218367;0.000201;86.3941;329.9943;87.8137;272.3289;1.9717E-5;7.5E-7;0;Iridium
14.34217919;0.0001976;86.3937;329.615;86.9231;273.219;1.9102E-5;7.3E-7;0;Iridium
14.34217953;0.000197;86.3938;329.5857;87.0617;273.0804;1.871E-5;7.2E-7;0;Iridium
14.34217989;0.0001963;86.3938;329.4397;87.1763;272.9657;1.9145E-5;7.3E-7;0;Iridium
14.34217929;0.0001959;86.3937;329.1769;87.5749;272.5671;6.1775E-6;3.7E-7;0;Iridium
14.34217935;0.0001957;86.3937;329.0309;87.7285;272.4135;7.093E-6;4.0E-7;0;Iridium
14.34218096;0.0001958;86.3936;328.7682;87.9998;272.1422;1.4352E-5;6.0E-7;0;Iridium
14.34218115;0.0001956;86.3936;328.739;88.0634;272.0786;1.5209E-5;6.2E-7;0;Iridium
14.34218115;0.0001956;86.3936;328.739;88.0634;272.0786;1.5209E-5;6.2E-7;0;Iridium
14.34218133;0.0001956;86.3936;328.7098;88.2507;271.8912;1.6381E-5;6.6E-7;0;Iridium
14.3421824;0.0001953;86.3935;328.301;88.8189;271.3231;1.5538E-5;6.3E-7;0;Iridium
14.34218245;0.0001949;86.3935;328.1842;88.9449;271.197;1.4604E-5;6.1E-7;0;Iridium
14.3421824;0.0001951;86.3934;327.9507;89.2866;270.8553;1.0461E-5;4.9E-7;0;Iridium
14.34218248;0.000195;86.3934;327.7755;89.5702;270.5717;9.6036E-6;4.7E-7;0;Iridium
14.34218232;0.0001953;86.3933;327.5127;89.8352;270.3067;5.4494E-6;3.5E-7;0;Iridium
14.34218232;0.0001953;86.3933;327.5127;89.8352;270.3067;5.4494E-6;3.5E-7;0;Iridium
14.34218226;0.0001954;86.3933;327.4543;90.0724;270.0696;5.0814E-6;3.4E-7;0;Iridium
14.34218113;0.0001955;86.3932;327.0747;90.5705;269.5714;-2.4915E-6;1.3E-7;0;Iridium
14.34218002;0.0001874;86.3931;326.6659;86.7664;273.3746;-3.5904E-6;1.0E-7;0;Iridium
14.34217988;0.0001875;86.3931;326.6367;86.7521;273.389;-4.2368E-6;8.0E-8;0;Iridium
